[{"OBJECT_NAME":"GEESAT-1 06","OBJECT_ID":"2022-058F","EPOCH":"2026-03-09T21:42:30.443328","MEAN_MOTION":14.8101583,"ECCENTRICITY":0.00346377,"INCLINATION":50.0048,"RA_OF_ASC_NODE":301.1801,"ARG_OF_PERICENTER":126.8919,"MEAN_ANOMALY":233.5201,"EPHEMERIS_TYPE":0,"CLASSIFICATION_TYPE":"U","NORAD_CAT_ID":52790,"ELEMENT_SET_NO":999,"REV_AT_EPOCH":20521,"BSTAR":0.00037629546,"MEAN_MOTION_DOT":2.747e-5,"MEAN_MOTION_DDOT":0},{"OBJECT_NAME":"FREGAT DEB","OBJECT_ID":"2011-037BA","EPOCH":"2026-03-07T21:51:11.179584","MEAN_MOTION":11.85982955,"ECCENTRICITY":0.16068404,"INCLINATION":51.4778,"RA_OF_ASC_NODE":309.8732,"ARG_OF_PERICENTER":204.2893,"MEAN_ANOMALY":147.3247,"EPHEMERIS_TYPE":0,"CLASSIFICATION_TYPE":"U","NORAD_CAT_ID":45816,"ELEMENT_SET_NO":999,"REV_AT_EPOCH":24023,"BSTAR":0.0038548869,"MEAN_MOTION_DOT":0.00018183,"MEAN_MOTION_DDOT":0}]
